TIROS N [P]             
1 11060U 78096A   17345.77457349 -.00000022  00000-0  11011-4 0  9997
2 11060  98.8717  35.9252 0010576 188.7321 171.3672 14.18177584237910
